[
    {
        "Altitude(m)": 564215.1733488747,
        "Argument of Periapsis(deg)": 0.006622991110713501,
        "Eccentricity": 0.0,
        "Inclination(deg)": 53.0,
        "Latitude(deg)": -34.344387544794785,
        "Longitude(deg)": 130.02961244475955,
        "Mean Anomaly(deg)": 224.63709286757754,
        "RAAN(deg)": 19.990143368528017,
        "Satellite Name": "Starlink Shell 1 101",
        "Satellite Number": 101,
        "Semi-Major Axis(m)": 6931778.249405717,
        "Time(s)": 190
    },
    {
        "Altitude(m)": 564388.4561954733,
        "Argument of Periapsis(deg)": 0.0069715695902247375,
        "Eccentricity": 0.0,
        "Inclination(deg)": 53.0,
        "Latitude(deg)": -34.77369141088977,
        "Longitude(deg)": 130.54121605656255,
        "Mean Anomaly(deg)": 225.26392407113434,
        "RAAN(deg)": 19.989624598450543,
        "Satellite Name": "Starlink Shell 1 101",
        "Satellite Number": 101,
        "Semi-Major Axis(m)": 6931778.249405717,
        "Time(s)": 200
    },
    {
        "Altitude(m)": 564561.1850744152,
        "Argument of Periapsis(deg)": 0.007320148069735974,
        "Eccentricity": 0.0,
        "Inclination(deg)": 53.0,
        "Latitude(deg)": -35.20041677649025,
        "Longitude(deg)": 131.058538497742,
        "Mean Anomaly(deg)": 225.89075527469106,
        "RAAN(deg)": 19.98910582837307,
        "Satellite Name": "Starlink Shell 1 101",
        "Satellite Number": 101,
        "Semi-Major Axis(m)": 6931778.249405717,
        "Time(s)": 210
    },
    {
        "Altitude(m)": 564733.2938171892,
        "Argument of Periapsis(deg)": 0.007668726549247212,
        "Eccentricity": 0.0,
        "Inclination(deg)": 53.0,
        "Latitude(deg)": -35.62449704419412,
        "Longitude(deg)": 131.58169612714318,
        "Mean Anomaly(deg)": 226.51758647824772,
        "RAAN(deg)": 19.9885870582956,
        "Satellite Name": "Starlink Shell 1 101",
        "Satellite Number": 101,
        "Semi-Major Axis(m)": 6931778.249405717,
        "Time(s)": 220
    },
    {
        "Altitude(m)": 564904.7163863173,
        "Argument of Periapsis(deg)": 0.00801730502875845,
        "Eccentricity": 0.0,
        "Inclination(deg)": 53.0,
        "Latitude(deg)": -36.045864088546,
        "Longitude(deg)": 132.11080601678518,
        "Mean Anomaly(deg)": 227.14441768180447,
        "RAAN(deg)": 19.988068288218127,
        "Satellite Name": "Starlink Shell 1 101",
        "Satellite Number": 101,
        "Semi-Major Axis(m)": 6931778.249405717,
        "Time(s)": 230
    },
    {
        "Altitude(m)": 565075.386904817,
        "Argument of Periapsis(deg)": 0.008365883508269684,
        "Eccentricity": 0.0,
        "Inclination(deg)": 53.0,
        "Latitude(deg)": -36.4644482253295,
        "Longitude(deg)": 132.645986362083,
        "Mean Anomaly(deg)": 227.77124888536113,
        "RAAN(deg)": 19.987549518140654,
        "Satellite Name": "Starlink Shell 1 101",
        "Satellite Number": 101,
        "Semi-Major Axis(m)": 6931778.249405717,
        "Time(s)": 240
    },
    {
        "Altitude(m)": 565245.2396855792,
        "Argument of Periapsis(deg)": 0.008714461987780921,
        "Eccentricity": 0.0,
        "Inclination(deg)": 53.0,
        "Latitude(deg)": -36.88017818154936,
        "Longitude(deg)": 133.18735536960156,
        "Mean Anomaly(deg)": 228.3980800889179,
        "RAAN(deg)": 19.98703074806318,
        "Satellite Name": "Starlink Shell 1 101",
        "Satellite Number": 101,
        "Semi-Major Axis(m)": 6931778.249405717,
        "Time(s)": 250
    },
    {
        "Altitude(m)": 565414.2092606613,
        "Argument of Periapsis(deg)": 0.009063040467292158,
        "Eccentricity": 0.0,
        "Inclination(deg)": 53.0,
        "Latitude(deg)": -37.29298106624759,
        "Longitude(deg)": 133.73503164752313,
        "Mean Anomaly(deg)": 229.02491129247466,
        "RAAN(deg)": 19.98651197798571,
        "Satellite Name": "Starlink Shell 1 101",
        "Satellite Number": 101,
        "Semi-Major Axis(m)": 6931778.249405717,
        "Time(s)": 260
    },
    {
        "Altitude(m)": 565582.2304104619,
        "Argument of Periapsis(deg)": 0.009411618946803396,
        "Eccentricity": 0.0,
        "Inclination(deg)": 53.0,
        "Latitude(deg)": -37.702782342309284,
        "Longitude(deg)": 134.2891345853866,
        "Mean Anomaly(deg)": 229.65174249603132,
        "RAAN(deg)": 19.985993207908233,
        "Satellite Name": "Starlink Shell 1 101",
        "Satellite Number": 101,
        "Semi-Major Axis(m)": 6931778.249405717,
        "Time(s)": 270
    },
    {
        "Altitude(m)": 565749.2381927611,
        "Argument of Periapsis(deg)": 0.009760197426314633,
        "Eccentricity": 0.0,
        "Inclination(deg)": 53.0,
        "Latitude(deg)": -38.109505799424774,
        "Longitude(deg)": 134.84978320964282,
        "Mean Anomaly(deg)": 230.27857369958804,
        "RAAN(deg)": 19.98547443783076,
        "Satellite Name": "Starlink Shell 1 101",
        "Satellite Number": 101,
        "Semi-Major Axis(m)": 6931778.249405717,
        "Time(s)": 280
    },
    {
        "Altitude(m)": 565915.1679716216,
        "Argument of Periapsis(deg)": 0.01010877590582587,
        "Eccentricity": 0.0,
        "Inclination(deg)": 53.0,
        "Latitude(deg)": -38.51307352839021,
        "Longitude(deg)": 135.41709654017552,
        "Mean Anomaly(deg)": 230.90540490314473,
        "RAAN(deg)": 19.98495566775329,
        "Satellite Name": "Starlink Shell 1 101",
        "Satellite Number": 101,
        "Semi-Major Axis(m)": 6931778.249405717,
        "Time(s)": 290
    },
    {
        "Altitude(m)": 566079.9554461548,
        "Argument of Periapsis(deg)": 0.010457354385337106,
        "Eccentricity": 0.0,
        "Inclination(deg)": 53.0,
        "Latitude(deg)": -38.91340589694295,
        "Longitude(deg)": 135.99119393432017,
        "Mean Anomaly(deg)": 231.53223610670145,
        "RAAN(deg)": 19.984436897675817,
        "Satellite Name": "Starlink Shell 1 101",
        "Satellite Number": 101,
        "Semi-Major Axis(m)": 6931778.249405717,
        "Time(s)": 300
    },
    {
        "Altitude(m)": 566243.5366790852,
        "Argument of Periapsis(deg)": 0.010805932864848343,
        "Eccentricity": 0.0,
        "Inclination(deg)": 53.0,
        "Latitude(deg)": -39.31042152733593,
        "Longitude(deg)": 136.57219390490766,
        "Mean Anomaly(deg)": 232.1590673102582,
        "RAAN(deg)": 19.983918127598344,
        "Satellite Name": "Starlink Shell 1 101",
        "Satellite Number": 101,
        "Semi-Major Axis(m)": 6931778.249405717,
        "Time(s)": 310
    },
    {
        "Altitude(m)": 566405.8481251837,
        "Argument of Periapsis(deg)": 0.01115451134435958,
        "Eccentricity": 0.0,
        "Inclination(deg)": 53.0,
        "Latitude(deg)": -39.70403727587965,
        "Longitude(deg)": 137.1602144374784,
        "Mean Anomaly(deg)": 232.78589851381489,
        "RAAN(deg)": 19.983399357520874,
        "Satellite Name": "Starlink Shell 1 101",
        "Satellite Number": 101,
        "Semi-Major Axis(m)": 6931778.249405717,
        "Time(s)": 320
    },
    {
        "Altitude(m)": 566566.8266594573,
        "Argument of Periapsis(deg)": 0.011503089823870818,
        "Eccentricity": 0.0,
        "Inclination(deg)": 53.0,
        "Latitude(deg)": -40.09416821468761,
        "Longitude(deg)": 137.7553732932041,
        "Mean Anomaly(deg)": 233.41272971737163,
        "RAAN(deg)": 19.982880587443397,
        "Satellite Name": "Starlink Shell 1 101",
        "Satellite Number": 101,
        "Semi-Major Axis(m)": 6931778.249405717,
        "Time(s)": 330
    },
    {
        "Altitude(m)": 566726.4096051721,
        "Argument of Periapsis(deg)": 0.011851668303382053,
        "Eccentricity": 0.0,
        "Inclination(deg)": 53.0,
        "Latitude(deg)": -40.480727615876916,
        "Longitude(deg)": 138.3577867840657,
        "Mean Anomaly(deg)": 234.03956092092832,
        "RAAN(deg)": 19.982361817365923,
        "Satellite Name": "Starlink Shell 1 101",
        "Satellite Number": 101,
        "Semi-Major Axis(m)": 6931778.249405717,
        "Time(s)": 340
    },
    {
        "Altitude(m)": 566884.5347616519,
        "Argument of Periapsis(deg)": 0.012200246782893292,
        "Eccentricity": 0.0,
        "Inclination(deg)": 53.0,
        "Latitude(deg)": -40.86362693849669,
        "Longitude(deg)": 138.9675700454707,
        "Mean Anomaly(deg)": 234.66639212448501,
        "RAAN(deg)": 19.98184304728845,
        "Satellite Name": "Starlink Shell 1 101",
        "Satellite Number": 101,
        "Semi-Major Axis(m)": 6931778.249405717,
        "Time(s)": 350
    },
    {
        "Altitude(m)": 567041.1404318402,
        "Argument of Periapsis(deg)": 0.012548825262404526,
        "Eccentricity": 0.0,
        "Inclination(deg)": 53.0,
        "Latitude(deg)": -41.24277581846769,
        "Longitude(deg)": 139.58483729290165,
        "Mean Anomaly(deg)": 235.2932233280418,
        "RAAN(deg)": 19.98132427721098,
        "Satellite Name": "Starlink Shell 1 101",
        "Satellite Number": 101,
        "Semi-Major Axis(m)": 6931778.249405717,
        "Time(s)": 360
    },
    {
        "Altitude(m)": 567196.1654496352,
        "Argument of Periapsis(deg)": 0.012897403741915765,
        "Eccentricity": 0.0,
        "Inclination(deg)": 53.0,
        "Latitude(deg)": -41.61808206183042,
        "Longitude(deg)": 140.2097005492212,
        "Mean Anomaly(deg)": 235.92005453159848,
        "RAAN(deg)": 19.980805507133507,
        "Satellite Name": "Starlink Shell 1 101",
        "Satellite Number": 101,
        "Semi-Major Axis(m)": 6931778.249405717,
        "Time(s)": 370
    }
]